{"type":"FeatureCollection","name":"liberia-counties","attribution":"County boundaries: UNMIL / OCHA, via geoBoundaries (CC BY 3.0 IGO)","source":"geoBoundaries LBR-ADM1-1627179 (wmgeolab/geoBoundaries@9469f09); see data/geo/geoboundaries/SOURCE.md","license":"CC BY 3.0 IGO","features":[{"type":"Feature","properties":{"NAME_1":"Bomi","shapeName":"Bomi","shapeISO":"LR-BM","shapeID":"1627179B80972729563959"},"geometry":{"type":"Polygon","coordinates":[[[-10.50421,6.86123],[-10.537,6.86836],[-10.5441,6.87552],[-10.58316,6.88095],[-10.64068,6.87474],[-10.64902,6.85214],[-10.67227,6.84384],[-10.68081,6.84602],[-10.68228,6.85148],[-10.686,6.8474],[-10.70008,6.84684],[-10.71944,6.85746],[-10.74204,6.85162],[-10.7453,6.84298],[-10.7527,6.84336],[-10.7611,6.85985],[-10.75691,6.87006],[-10.76106,6.88114],[-10.75285,6.88364],[-10.76486,6.90784],[-10.75666,6.91322],[-10.75997,6.91814],[-10.75462,6.92227],[-10.75459,6.93221],[-10.76065,6.93915],[-10.82747,6.97768],[-10.85728,6.97499],[-10.86563,6.9697],[-10.93649,6.98495],[-10.93654,6.97056],[-10.94812,6.95831],[-10.94164,6.94964],[-10.94298,6.93677],[-10.95994,6.91183],[-10.95645,6.90273],[-10.9625,6.90051],[-10.96562,6.87528],[-10.98863,6.84579],[-10.98629,6.82424],[-10.97118,6.81004],[-10.96538,6.79615],[-10.97771,6.78949],[-10.97219,6.73664],[-10.97998,6.72809],[-10.98219,6.7159],[-10.98871,6.71312],[-10.98952,6.72057],[-11.00115,6.71444],[-11.01055,6.71579],[-11.02378,6.70252],[-11.02683,6.69838],[-11.02136,6.68009],[-11.02744,6.66293],[-11.06301,6.65783],[-11.08607,6.63982],[-11.08849,6.63512],[-11.07147,6.60058],[-11.0702,6.58841],[-11.06531,6.57909],[-11.05149,6.57468],[-11.04925,6.58245],[-11.03994,6.58428],[-11.03739,6.57354],[-11.03121,6.57882],[-11.00882,6.56387],[-11.00089,6.55196],[-10.99468,6.55294],[-10.96094,6.53504],[-10.95879,6.54818],[-10.9424,6.56203],[-10.91412,6.55789],[-10.89605,6.52264],[-10.87472,6.51515],[-10.88339,6.4921],[-10.87862,6.48927],[-10.88043,6.4801],[-10.87321,6.48326],[-10.87044,6.47693],[-10.86486,6.48277],[-10.85797,6.47656],[-10.85472,6.48407],[-10.8519,6.48054],[-10.84568,6.4831],[-10.83917,6.47423],[-10.82487,6.49158],[-10.80851,6.49096],[-10.81061,6.50153],[-10.80673,6.50753],[-10.80872,6.51948],[-10.83601,6.52742],[-10.84256,6.5692],[-10.8291,6.57459],[-10.82855,6.58917],[-10.81323,6.59206],[-10.78321,6.58284],[-10.78223,6.56112],[-10.77633,6.55137],[-10.79298,6.54079],[-10.78718,6.52914],[-10.77212,6.52323],[-10.75553,6.5255],[-10.71395,6.56362],[-10.7176,6.56679],[-10.70819,6.58704],[-10.68772,6.59292],[-10.65123,6.59088],[-10.59688,6.60824],[-10.59073,6.61856],[-10.60683,6.63024],[-10.61118,6.64787],[-10.60197,6.68008],[-10.59631,6.68763],[-10.58763,6.68942],[-10.59725,6.71363],[-10.57394,6.72788],[-10.57417,6.76776],[-10.56649,6.7765],[-10.55632,6.80876],[-10.51435,6.82945],[-10.50932,6.82679],[-10.50421,6.86123]]]}},{"type":"Feature","properties":{"NAME_1":"Bong","shapeName":"Bong","shapeISO":"LR-BG","shapeID":"1627179B61083292869492"},"geometry":{"type":"Polygon","coordinates":[[[-10.50932,6.82679],[-10.45471,6.77561],[-10.37771,6.77211],[-10.35234,6.78585],[-10.34042,6.81154],[-10.28634,6.82106],[-10.24492,6.85082],[-10.19762,6.87153],[-10.18489,6.88416],[-10.14679,6.897],[-10.12471,6.85403],[-10.12188,6.82715],[-10.15021,6.78114],[-10.14572,6.76809],[-10.14952,6.75241],[-10.16197,6.75161],[-10.171,6.7428],[-10.17485,6.69666],[-10.16357,6.69334],[-10.14757,6.70351],[-10.13745,6.69954],[-10.12205,6.70134],[-10.1147,6.69189],[-10.09672,6.69053],[-10.08228,6.67114],[-10.06023,6.6726],[-10.05573,6.68066],[-10.03511,6.68895],[-9.99949,6.67616],[-9.9777,6.68527],[-9.95631,6.67268],[-9.92537,6.68176],[-9.91891,6.67831],[-9.91474,6.66652],[-9.9238,6.64139],[-9.92256,6.62863],[-9.89062,6.60571],[-9.88143,6.62099],[-9.87316,6.62316],[-9.86986,6.641],[-9.85381,6.6587],[-9.84492,6.68104],[-9.81521,6.71642],[-9.79292,6.73171],[-9.75085,6.74583],[-9.74965,6.73291],[-9.7386,6.71524],[-9.70851,6.68476],[-9.70786,6.67697],[-9.69404,6.67591],[-9.6905,6.66798],[-9.67628,6.65977],[-9.66094,6.65827],[-9.64054,6.64683],[-9.63127,6.63896],[-9.63293,6.63552],[-9.61862,6.63446],[-9.59845,6.61878],[-9.59735,6.6048],[-9.61926,6.55237],[-9.61864,6.54284],[-9.6489,6.48234],[-9.66693,6.45641],[-9.66779,6.44866],[-9.65854,6.43617],[-9.66478,6.42724],[-9.66619,6.40287],[-9.64671,6.41661],[-9.644,6.42679],[-9.62171,6.4368],[-9.60486,6.45265],[-9.58475,6.45963],[-9.58344,6.47507],[-9.57047,6.48066],[-9.54518,6.46585],[-9.53343,6.47025],[-9.52402,6.46586],[-9.51547,6.48287],[-9.5018,6.48381],[-9.50754,6.49975],[-9.5047,6.50249],[-9.48539,6.49291],[-9.48108,6.49477],[-9.48006,6.50511],[-9.4694,6.5012],[-9.46725,6.51242],[-9.45272,6.5068],[-9.45267,6.52181],[-9.43828,6.51823],[-9.42426,6.54228],[-9.40402,6.56354],[-9.39696,6.55384],[-9.39209,6.55491],[-9.37157,6.57597],[-9.36799,6.58943],[-9.33546,6.60524],[-9.33241,6.61365],[-9.33655,6.62229],[-9.32841,6.62328],[-9.31274,6.60906],[-9.31788,6.59148],[-9.28018,6.60076],[-9.26999,6.6091],[-9.25862,6.60724],[-9.25559,6.61254],[-9.24731,6.61298],[-9.24481,6.62016],[-9.2311,6.61726],[-9.21336,6.62112],[-9.21485,6.63062],[-9.211,6.63471],[-9.19698,6.61864],[-9.19198,6.61992],[-9.18718,6.63094],[-9.18074,6.62331],[-9.17627,6.6268],[-9.16706,6.65492],[-9.15859,6.66118],[-9.17236,6.67244],[-9.17337,6.67843],[-9.16687,6.68216],[-9.16095,6.67751],[-9.14957,6.69065],[-9.15631,6.70075],[-9.14902,6.70729],[-9.16003,6.71793],[-9.15325,6.72639],[-9.14202,6.72409],[-9.14387,6.73423],[-9.13582,6.74753],[-9.12648,6.74557],[-9.12197,6.74922],[-9.1246,6.75715],[-9.13294,6.76117],[-9.13927,6.77788],[-9.12938,6.77916],[-9.10808,6.80098],[-9.11128,6.81639],[-9.10803,6.82589],[-9.11175,6.82984],[-9.11422,6.82445],[-9.11627,6.82819],[-9.11375,6.84875],[-9.1175,6.84953],[-9.10416,6.8543],[-9.1156,6.87622],[-9.10732,6.883],[-9.11992,6.89049],[-9.12361,6.90617],[-9.14269,6.91019],[-9.14208,6.91911],[-9.15732,6.93159],[-9.15481,6.94739],[-9.1699,6.96057],[-9.18024,6.95844],[-9.19387,6.97698],[-9.19307,6.98398],[-9.18871,6.99424],[-9.17831,6.99487],[-9.16395,7.00527],[-9.17453,7.02672],[-9.16131,7.03003],[-9.15802,7.04488],[-9.16861,7.0611],[-9.13244,7.09384],[-9.13491,7.10203],[-9.10695,7.17987],[-9.11231,7.18421],[-9.1059,7.19943],[-9.11032,7.20296],[-9.10924,7.20926],[-9.10139,7.22079],[-9.10463,7.23662],[-9.11094,7.236],[-9.11386,7.24169],[-9.11048,7.24937],[-9.12556,7.25659],[-9.12341,7.2738],[-9.1542,7.27226],[-9.19761,7.31358],[-9.20625,7.35415],[-9.20056,7.36321],[-9.20472,7.36752],[-9.20026,7.37751],[-9.20411,7.38749],[-9.21858,7.38549],[-9.23644,7.39209],[-9.26738,7.37701],[-9.28354,7.37546],[-9.29063,7.39206],[-9.28586,7.40236],[-9.29188,7.4234],[-9.29573,7.42678],[-9.30451,7.42278],[-9.31036,7.43354],[-9.31945,7.43507],[-9.32837,7.4306],[-9.32822,7.42599],[-9.34608,7.42951],[-9.34916,7.43458],[-9.35332,7.43028],[-9.36255,7.4315],[-9.36747,7.42335],[-9.36423,7.41213],[-9.37224,7.41428],[-9.38162,7.40828],[-9.38531,7.39444],[-9.39808,7.3952],[-9.40116,7.38797],[-9.40655,7.39166],[-9.40117,7.40227],[-9.4061,7.4061],[-9.40241,7.41164],[-9.40826,7.41225],[-9.41674,7.42792],[-9.42828,7.41469],[-9.43305,7.41883],[-9.44012,7.40945],[-9.46674,7.39652],[-9.47641,7.36792],[-9.48242,7.36664],[-9.49632,7.33967],[-9.53816,7.32478],[-9.5633,7.30697],[-9.59236,7.29892],[-9.60829,7.28647],[-9.6516,7.27566],[-9.65407,7.26752],[-9.64804,7.2626],[-9.65526,7.2506],[-9.65479,7.24522],[-9.64929,7.2451],[-9.65247,7.23401],[-9.66123,7.22693],[-9.65776,7.21278],[-9.66095,7.20813],[-9.68172,7.19972],[-9.69881,7.20452],[-9.70597,7.19578],[-9.72024,7.19939],[-9.72071,7.18351],[-9.72763,7.18534],[-9.73996,7.1761],[-9.74933,7.18604],[-9.75277,7.1805],[-9.76524,7.18446],[-9.78971,7.18188],[-9.79579,7.19535],[-9.81136,7.19913],[-9.8166,7.20572],[-9.8458,7.18211],[-9.85269,7.18447],[-9.86605,7.17777],[-9.86603,7.16828],[-9.87888,7.15976],[-9.89033,7.15653],[-9.8978,7.15963],[-9.90598,7.15413],[-9.90096,7.14336],[-9.92461,7.12708],[-9.93446,7.13174],[-9.94322,7.12734],[-9.94598,7.13696],[-10.0106,7.10982],[-10.01241,7.09543],[-10.02681,7.09454],[-10.04567,7.0795],[-10.06417,7.07712],[-10.07085,7.05849],[-10.09448,7.03993],[-10.10157,7.03838],[-10.1077,7.05043],[-10.11172,7.04813],[-10.11654,7.05315],[-10.10646,7.0592],[-10.11684,7.07639],[-10.11875,7.09474],[-10.1253,7.09971],[-10.11913,7.10809],[-10.10979,7.11105],[-10.1134,7.11454],[-10.10725,7.1273],[-10.11404,7.14764],[-10.13882,7.14723],[-10.16374,7.1536],[-10.2196,7.13949],[-10.23497,7.12538],[-10.23548,7.08739],[-10.33625,6.98632],[-10.36162,6.96411],[-10.39617,6.968],[-10.41702,6.96456],[-10.44001,6.93897],[-10.43217,6.92661],[-10.44937,6.9026],[-10.47283,6.89462],[-10.50267,6.86546],[-10.50932,6.82679]]]}},{"type":"Feature","properties":{"NAME_1":"Gbarpolu","shapeName":"Gbarpolu","shapeISO":"LR-GP","shapeID":"1627179B68944354302681"},"geometry":{"type":"Polygon","coordinates":[[[-10.50421,6.86123],[-10.47283,6.89462],[-10.44937,6.9026],[-10.43217,6.92661],[-10.44001,6.93897],[-10.41702,6.96456],[-10.39617,6.968],[-10.36162,6.96411],[-10.33625,6.98632],[-10.23548,7.08739],[-10.23497,7.12538],[-10.2196,7.13949],[-10.16374,7.1536],[-10.13882,7.14723],[-10.11404,7.14764],[-10.10725,7.1273],[-10.1134,7.11454],[-10.10979,7.11105],[-10.11913,7.10809],[-10.1253,7.09971],[-10.11875,7.09474],[-10.11684,7.07639],[-10.10646,7.0592],[-10.11654,7.05315],[-10.11172,7.04813],[-10.1077,7.05043],[-10.10038,7.03844],[-10.0774,7.05054],[-10.06417,7.07712],[-10.04567,7.0795],[-10.02681,7.09454],[-10.01241,7.09543],[-10.0106,7.10982],[-9.94598,7.13696],[-9.94322,7.12734],[-9.93446,7.13174],[-9.92461,7.12708],[-9.90096,7.14336],[-9.90598,7.15413],[-9.8978,7.15963],[-9.89033,7.15653],[-9.87888,7.15976],[-9.86603,7.16828],[-9.86605,7.17777],[-9.85269,7.18447],[-9.8458,7.18211],[-9.80763,7.21418],[-9.80264,7.21087],[-9.79295,7.22739],[-9.79085,7.24596],[-9.78063,7.25635],[-9.76319,7.25456],[-9.77462,7.26941],[-9.78131,7.27094],[-9.78542,7.26631],[-9.78543,7.27342],[-9.7913,7.27806],[-9.78189,7.2788],[-9.76518,7.29958],[-9.76319,7.32216],[-9.75341,7.34538],[-9.747,7.35267],[-9.73355,7.35668],[-9.73436,7.36122],[-9.7412,7.3623],[-9.72924,7.36348],[-9.72867,7.37285],[-9.72514,7.37203],[-9.72617,7.36498],[-9.72036,7.36665],[-9.71831,7.38116],[-9.72308,7.38053],[-9.72359,7.3859],[-9.70534,7.38792],[-9.70161,7.39539],[-9.69372,7.39312],[-9.68583,7.39811],[-9.69872,7.40265],[-9.7008,7.41073],[-9.69583,7.41364],[-9.7083,7.42087],[-9.70962,7.43704],[-9.71898,7.4435],[-9.71379,7.44662],[-9.71536,7.45284],[-9.70965,7.45518],[-9.70784,7.46244],[-9.68743,7.47307],[-9.69506,7.48549],[-9.68469,7.49166],[-9.68471,7.50128],[-9.66881,7.50917],[-9.65864,7.50395],[-9.65649,7.51632],[-9.63631,7.53265],[-9.66358,7.59161],[-9.68944,7.62186],[-9.75428,7.66466],[-9.76616,7.66649],[-9.83675,7.70536],[-9.86898,7.7138],[-9.90219,7.73925],[-9.924,7.74771],[-9.95167,7.74906],[-9.99157,7.73381],[-10.02299,7.73322],[-10.0283,7.74744],[-10.04469,7.74762],[-10.04615,7.73748],[-10.09565,7.73715],[-10.11211,7.74129],[-10.17504,7.73254],[-10.1783,7.73771],[-10.16892,7.74875],[-10.16474,7.76398],[-10.16899,7.77433],[-10.19043,7.7801],[-10.18681,7.81914],[-10.22443,7.80381],[-10.2404,7.82417],[-10.23103,7.83844],[-10.2338,7.84183],[-10.2484,7.83726],[-10.25394,7.84339],[-10.28643,7.82032],[-10.27897,7.85077],[-10.29506,7.85606],[-10.30349,7.85312],[-10.31718,7.86733],[-10.31982,7.88092],[-10.30159,7.89452],[-10.293,7.92602],[-10.31198,7.91835],[-10.32173,7.92026],[-10.32663,7.92834],[-10.31761,7.95104],[-10.29642,7.98008],[-10.29226,8.00018],[-10.2996,8.00841],[-10.31518,8.00642],[-10.3269,8.0135],[-10.33433,7.99826],[-10.39743,7.97587],[-10.39878,7.98914],[-10.43193,7.98447],[-10.43777,7.99095],[-10.54465,7.9509],[-10.54762,7.96352],[-10.55341,7.9499],[-10.56449,7.94755],[-10.56851,7.93843],[-10.60606,7.92065],[-10.60545,7.77542],[-10.63066,7.7671],[-10.64278,7.76988],[-10.6582,7.76314],[-10.66948,7.74974],[-10.69725,7.73833],[-10.70751,7.72852],[-10.7113,7.71079],[-10.71799,7.70922],[-10.71643,7.70357],[-10.72567,7.69788],[-10.72615,7.68915],[-10.739,7.68345],[-10.74924,7.66902],[-10.74792,7.66106],[-10.76745,7.65174],[-10.76743,7.64608],[-10.77261,7.65326],[-10.77517,7.65068],[-10.77359,7.64195],[-10.79153,7.62081],[-10.79043,7.60335],[-10.7981,7.59253],[-10.81613,7.59502],[-10.82227,7.58421],[-10.81991,7.57523],[-10.82762,7.57212],[-10.82656,7.56441],[-10.83634,7.56335],[-10.84349,7.54996],[-10.8743,7.53181],[-10.8591,7.52146],[-10.85013,7.50658],[-10.82437,7.49203],[-10.8033,7.46909],[-10.79452,7.43799],[-10.73364,7.42982],[-10.72905,7.43246],[-10.70671,7.41382],[-10.70456,7.40287],[-10.65596,7.38326],[-10.62576,7.35822],[-10.59979,7.35658],[-10.5696,7.34242],[-10.51545,7.35322],[-10.51543,7.32278],[-10.52054,7.31153],[-10.54755,7.28927],[-10.59215,7.26563],[-10.61055,7.24643],[-10.6797,7.19765],[-10.71006,7.18884],[-10.7446,7.15827],[-10.76572,7.12316],[-10.78766,7.11993],[-10.79867,7.11249],[-10.8126,7.11278],[-10.82997,7.10228],[-10.83331,7.08768],[-10.8732,7.07132],[-10.8947,7.05638],[-10.90847,7.04234],[-10.92198,7.01547],[-10.93314,7.01873],[-10.9481,7.01553],[-10.95485,7.00681],[-10.94019,6.998],[-10.93475,6.984],[-10.86563,6.9697],[-10.85728,6.97499],[-10.82747,6.97768],[-10.75809,6.93708],[-10.75459,6.93221],[-10.75462,6.92227],[-10.75997,6.91814],[-10.75666,6.91322],[-10.76486,6.90784],[-10.75285,6.88364],[-10.76106,6.88114],[-10.75691,6.87006],[-10.7613,6.86427],[-10.75931,6.85032],[-10.7527,6.84336],[-10.7453,6.84298],[-10.74204,6.85162],[-10.71944,6.85746],[-10.70008,6.84684],[-10.686,6.8474],[-10.68228,6.85148],[-10.68081,6.84602],[-10.67227,6.84384],[-10.64902,6.85214],[-10.64068,6.87474],[-10.58316,6.88095],[-10.5441,6.87552],[-10.537,6.86836],[-10.50421,6.86123]]]}},{"type":"Feature","properties":{"NAME_1":"Grand Bassa","shapeName":"Grand Bassa","shapeISO":"LR-GB","shapeID":"1627179B88241484252267"},"geometry":{"type":"Polygon","coordinates":[[[-9.8732,6.62315],[-9.87877,6.61218],[-9.87804,6.58371],[-9.89231,6.56614],[-9.90334,6.54113],[-9.91831,6.53248],[-9.93062,6.50588],[-9.93771,6.50064],[-9.93764,6.48992],[-9.94565,6.48197],[-9.94098,6.46948],[-9.94572,6.46755],[-9.94806,6.45717],[-9.95177,6.45129],[-9.97263,6.44663],[-9.98079,6.43952],[-10.00048,6.44626],[-10.00658,6.45476],[-10.02254,6.45326],[-10.02977,6.46221],[-10.03954,6.46318],[-10.03971,6.47046],[-10.05826,6.47344],[-10.07445,6.48989],[-10.08182,6.48623],[-10.08532,6.49154],[-10.09802,6.4942],[-10.10553,6.48223],[-10.11454,6.48734],[-10.12587,6.50403],[-10.13934,6.50994],[-10.14992,6.50785],[-10.15362,6.51926],[-10.16845,6.53289],[-10.16261,6.54801],[-10.17095,6.54782],[-10.1766,6.55407],[-10.18745,6.55216],[-10.19036,6.54205],[-10.20665,6.5494],[-10.21053,6.55597],[-10.21805,6.54547],[-10.22648,6.54748],[-10.25075,6.53716],[-10.25188,6.51726],[-10.23396,6.50266],[-10.241,6.49608],[-10.23988,6.48587],[-10.23593,6.48477],[-10.23369,6.4937],[-10.22036,6.48824],[-10.22427,6.48657],[-10.23043,6.46142],[-10.23813,6.46206],[-10.2342,6.4511],[-10.23729,6.44195],[-10.25191,6.44261],[-10.26,6.42722],[-10.27108,6.42572],[-10.26957,6.41263],[-10.26067,6.39787],[-10.26708,6.38941],[-10.26527,6.38208],[-10.2717,6.38037],[-10.26904,6.37045],[-10.27969,6.36789],[-10.28189,6.35986],[-10.28729,6.36139],[-10.28615,6.35659],[-10.29759,6.35],[-10.29987,6.34083],[-10.30507,6.34572],[-10.31369,6.34511],[-10.30154,6.32693],[-10.31317,6.31465],[-10.30053,6.31266],[-10.30305,6.30573],[-10.29679,6.30336],[-10.29688,6.29886],[-10.30874,6.29217],[-10.31994,6.27015],[-10.33191,6.27569],[-10.3279,6.2659],[-10.33526,6.26677],[-10.34651,6.25572],[-10.35551,6.23262],[-10.34033,6.19816],[-10.35767,6.1779],[-10.35533,6.15513],[-10.37849,6.14909],[-10.3822,6.14359],[-10.36939,6.12947],[-10.37744,6.11862],[-10.36336,6.10489],[-10.28497,6.07393],[-10.22559,6.04388],[-10.18615,5.99861],[-10.17822,5.9779],[-10.1194,5.95201],[-10.11694,5.94613],[-10.06785,5.9138],[-10.05322,5.88952],[-10.05329,5.87404],[-10.05802,5.86624],[-10.02253,5.8377],[-10.01957,5.81916],[-9.97031,5.78414],[-9.90515,5.72419],[-9.8593,5.69528],[-9.83744,5.66373],[-9.78181,5.60724],[-9.72867,5.56862],[-9.73319,5.59741],[-9.7078,5.60498],[-9.70736,5.61112],[-9.71262,5.61344],[-9.70793,5.62515],[-9.68251,5.63939],[-9.66634,5.66198],[-9.66732,5.66837],[-9.67479,5.67131],[-9.67125,5.67915],[-9.67403,5.7064],[-9.69319,5.72427],[-9.69485,5.73491],[-9.67878,5.74578],[-9.68221,5.74921],[-9.67802,5.76924],[-9.68744,5.77523],[-9.68467,5.7906],[-9.69793,5.79904],[-9.69997,5.8055],[-9.69451,5.81633],[-9.69978,5.82249],[-9.6778,5.85884],[-9.66705,5.85947],[-9.66412,5.86388],[-9.66512,5.87969],[-9.66225,5.8833],[-9.65784,5.88049],[-9.6548,5.89029],[-9.66801,5.90365],[-9.67,5.93338],[-9.66764,5.9413],[-9.66335,5.93408],[-9.65918,5.93763],[-9.66993,5.959],[-9.66173,5.96391],[-9.65912,5.97352],[-9.65734,5.96795],[-9.65419,5.97017],[-9.65303,5.97711],[-9.6579,5.98137],[-9.64873,5.98174],[-9.65658,5.99244],[-9.65033,5.99546],[-9.65383,6.00777],[-9.64572,6.01357],[-9.65376,6.0341],[-9.65179,6.04023],[-9.64488,6.03908],[-9.63843,6.05449],[-9.62214,6.05613],[-9.62337,6.06091],[-9.61578,6.06275],[-9.61074,6.07178],[-9.60508,6.07079],[-9.60313,6.07679],[-9.6128,6.08156],[-9.60669,6.08879],[-9.61185,6.09896],[-9.60478,6.10515],[-9.59772,6.1032],[-9.58268,6.11693],[-9.56553,6.10495],[-9.54687,6.10466],[-9.54331,6.09658],[-9.53915,6.09952],[-9.53645,6.09384],[-9.5415,6.09281],[-9.54061,6.08836],[-9.52768,6.06909],[-9.5232,6.09514],[-9.50672,6.11388],[-9.51054,6.11779],[-9.5062,6.12823],[-9.49993,6.12726],[-9.49598,6.14002],[-9.48135,6.15767],[-9.47484,6.15448],[-9.46486,6.16203],[-9.44259,6.16416],[-9.42496,6.15878],[-9.41487,6.16281],[-9.40555,6.18392],[-9.41519,6.2113],[-9.41377,6.27678],[-9.40738,6.2886],[-9.4089,6.30644],[-9.39787,6.33135],[-9.3937,6.32575],[-9.38263,6.32546],[-9.37871,6.31665],[-9.36543,6.30857],[-9.34189,6.30724],[-9.33096,6.32565],[-9.32917,6.35235],[-9.28435,6.35017],[-9.26667,6.3591],[-9.23621,6.36485],[-9.17735,6.41162],[-9.18198,6.45366],[-9.15844,6.52604],[-9.16544,6.57154],[-9.16204,6.59948],[-9.18444,6.62923],[-9.18918,6.62956],[-9.19198,6.61992],[-9.19698,6.61864],[-9.20833,6.63483],[-9.21485,6.63062],[-9.21336,6.62112],[-9.2311,6.61726],[-9.24481,6.62016],[-9.24731,6.61298],[-9.25559,6.61254],[-9.25862,6.60724],[-9.26999,6.6091],[-9.28018,6.60076],[-9.31788,6.59148],[-9.31274,6.60906],[-9.32841,6.62328],[-9.33508,6.62288],[-9.33546,6.60524],[-9.36799,6.58943],[-9.37157,6.57597],[-9.39209,6.55491],[-9.39696,6.55384],[-9.40402,6.56354],[-9.42426,6.54228],[-9.43828,6.51823],[-9.45267,6.52181],[-9.45272,6.5068],[-9.46725,6.51242],[-9.4694,6.5012],[-9.48006,6.50511],[-9.48108,6.49477],[-9.48539,6.49291],[-9.5047,6.50249],[-9.50754,6.49975],[-9.5018,6.48381],[-9.51547,6.48287],[-9.52402,6.46586],[-9.53343,6.47025],[-9.54518,6.46585],[-9.57047,6.48066],[-9.58344,6.47507],[-9.58475,6.45963],[-9.60486,6.45265],[-9.62171,6.4368],[-9.644,6.42679],[-9.64671,6.41661],[-9.66619,6.40287],[-9.66478,6.42724],[-9.65854,6.43617],[-9.66779,6.44866],[-9.66693,6.45641],[-9.6489,6.48234],[-9.61864,6.54284],[-9.61926,6.55237],[-9.59735,6.6048],[-9.59845,6.61878],[-9.61862,6.63446],[-9.63293,6.63552],[-9.63127,6.63896],[-9.64054,6.64683],[-9.66094,6.65827],[-9.67628,6.65977],[-9.6905,6.66798],[-9.69404,6.67591],[-9.70786,6.67697],[-9.70851,6.68476],[-9.7386,6.71524],[-9.74965,6.73291],[-9.75085,6.74583],[-9.79292,6.73171],[-9.81521,6.71642],[-9.84492,6.68104],[-9.85381,6.6587],[-9.86986,6.641],[-9.8732,6.62315]]]}},{"type":"Feature","properties":{"NAME_1":"Grand Cape Mount","shapeName":"Grand Cape Mount","shapeISO":"LR-CM","shapeID":"1627179B74258959251724"},"geometry":{"type":"Polygon","coordinates":[[[-10.93607,6.98472],[-10.94019,6.998],[-10.95485,7.00681],[-10.9481,7.01553],[-10.93314,7.01873],[-10.92198,7.01547],[-10.90847,7.04234],[-10.8947,7.05638],[-10.8732,7.07132],[-10.83331,7.08768],[-10.82997,7.10228],[-10.8126,7.11278],[-10.79867,7.11249],[-10.78766,7.11993],[-10.76572,7.12316],[-10.7446,7.15827],[-10.71006,7.18884],[-10.6797,7.19765],[-10.61055,7.24643],[-10.59215,7.26563],[-10.54755,7.28927],[-10.52054,7.31153],[-10.51543,7.32278],[-10.51545,7.35322],[-10.5696,7.34242],[-10.59979,7.35658],[-10.62576,7.35822],[-10.65596,7.38326],[-10.70456,7.40287],[-10.70671,7.41382],[-10.72905,7.43246],[-10.73364,7.42982],[-10.79452,7.43799],[-10.8033,7.46909],[-10.82437,7.49203],[-10.85013,7.50658],[-10.8591,7.52146],[-10.87451,7.53205],[-10.89426,7.52362],[-10.90379,7.51053],[-10.92395,7.49966],[-10.9336,7.51336],[-10.9376,7.5109],[-10.97164,7.48623],[-10.97715,7.47073],[-11.00825,7.45215],[-11.01048,7.44379],[-11.02588,7.43868],[-11.02777,7.43345],[-11.03371,7.43638],[-11.03523,7.42768],[-11.06125,7.40321],[-11.07515,7.3948],[-11.10196,7.39155],[-11.11562,7.36957],[-11.12397,7.3664],[-11.1339,7.34896],[-11.14467,7.3423],[-11.14511,7.32578],[-11.1548,7.31304],[-11.17306,7.30634],[-11.18117,7.28996],[-11.17784,7.28615],[-11.18371,7.27586],[-11.18127,7.26816],[-11.18756,7.26193],[-11.20859,7.25314],[-11.23052,7.25112],[-11.25029,7.23363],[-11.26491,7.23338],[-11.27469,7.23994],[-11.28963,7.19796],[-11.29764,7.1974],[-11.29176,7.20647],[-11.29977,7.20487],[-11.30538,7.21405],[-11.31051,7.21124],[-11.31315,7.18393],[-11.33444,7.15948],[-11.33073,7.14768],[-11.33332,7.14453],[-11.34692,7.14881],[-11.35211,7.142],[-11.33394,7.11236],[-11.33704,7.10591],[-11.33409,7.07808],[-11.36199,7.08197],[-11.37655,7.07146],[-11.37792,7.06676],[-11.36443,7.05099],[-11.36936,7.04791],[-11.3715,7.01932],[-11.37738,7.01164],[-11.39094,7.00879],[-11.40092,6.98736],[-11.41226,6.99165],[-11.41772,6.97162],[-11.43147,6.97225],[-11.43362,6.96632],[-11.42153,6.95109],[-11.41974,6.94153],[-11.44514,6.94071],[-11.4602,6.92602],[-11.5004,6.92668],[-11.46757,6.90477],[-11.45643,6.88571],[-11.4018,6.85121],[-11.37381,6.80267],[-11.37247,6.77746],[-11.36487,6.75913],[-11.35736,6.76311],[-11.3449,6.75585],[-11.3362,6.7625],[-11.3259,6.75791],[-11.31235,6.76853],[-11.29094,6.77272],[-11.28801,6.77692],[-11.28465,6.77297],[-11.27774,6.78031],[-11.26869,6.77812],[-11.26129,6.78534],[-11.25168,6.78377],[-11.24806,6.77809],[-11.2298,6.78234],[-11.22909,6.76771],[-11.2134,6.75995],[-11.20762,6.75146],[-11.20713,6.73877],[-11.21459,6.73525],[-11.20327,6.732],[-11.19593,6.72508],[-11.19836,6.72194],[-11.18249,6.71279],[-11.18256,6.7019],[-11.19607,6.68662],[-11.20021,6.67327],[-11.21498,6.68259],[-11.25487,6.68779],[-11.28141,6.70639],[-11.3067,6.71301],[-11.32802,6.73027],[-11.33574,6.72818],[-11.34053,6.74839],[-11.35546,6.76018],[-11.36773,6.75545],[-11.37053,6.76732],[-11.38399,6.75011],[-11.38568,6.73897],[-11.3644,6.70812],[-11.1106,6.59955],[-11.06788,6.57294],[-11.06461,6.58165],[-11.08849,6.63512],[-11.08607,6.63982],[-11.06301,6.65783],[-11.02744,6.66293],[-11.02136,6.68009],[-11.02683,6.69838],[-11.02378,6.70252],[-11.01055,6.71579],[-11.00115,6.71444],[-10.98952,6.72057],[-10.98871,6.71312],[-10.98219,6.7159],[-10.97998,6.72809],[-10.97219,6.73664],[-10.97771,6.78949],[-10.96538,6.79615],[-10.97118,6.81004],[-10.98629,6.82424],[-10.98863,6.84579],[-10.96562,6.87528],[-10.9625,6.90051],[-10.95645,6.90273],[-10.95994,6.91183],[-10.94298,6.93677],[-10.94164,6.94964],[-10.94812,6.95831],[-10.93654,6.97056],[-10.93607,6.98472]]]}},{"type":"Feature","properties":{"NAME_1":"Grand Gedeh","shapeName":"Grand Gedeh","shapeISO":"LR-GG","shapeID":"1627179B37296174914995"},"geometry":{"type":"Polygon","coordinates":[[[-7.40067,5.51397],[-7.39207,5.53782],[-7.39791,5.58509],[-7.38454,5.58976],[-7.39629,5.604],[-7.40303,5.62203],[-7.43943,5.76829],[-7.44987,5.7722],[-7.46318,5.78846],[-7.45674,5.79802],[-7.46975,5.81637],[-7.46537,5.8349],[-7.47461,5.84255],[-7.48237,5.84212],[-7.49095,5.81702],[-7.50747,5.83591],[-7.52016,5.83833],[-7.50909,5.84727],[-7.51242,5.85513],[-7.51899,5.85754],[-7.54037,5.84668],[-7.54099,5.83771],[-7.54727,5.83444],[-7.56339,5.86416],[-7.57234,5.86733],[-7.56875,5.87135],[-7.55503,5.86534],[-7.55233,5.87012],[-7.576,5.89634],[-7.59265,5.8993],[-7.59894,5.8896],[-7.60236,5.89679],[-7.60938,5.8974],[-7.61309,5.90668],[-7.63757,5.90898],[-7.64942,5.91866],[-7.6566,5.91404],[-7.65505,5.93512],[-7.66099,5.95054],[-7.66712,5.94652],[-7.67179,5.93247],[-7.68166,5.92771],[-7.67484,5.90586],[-7.68426,5.89975],[-7.72801,5.93342],[-7.73907,5.93225],[-7.75076,5.94791],[-7.75971,5.95196],[-7.76563,5.97546],[-7.78646,5.98006],[-7.79182,5.98815],[-7.79433,5.99952],[-7.78415,6.01027],[-7.79047,6.02157],[-7.77118,6.03439],[-7.7731,6.04097],[-7.79779,6.05725],[-7.79942,6.06369],[-7.79163,6.07414],[-7.7943,6.08311],[-7.80301,6.09517],[-7.80869,6.09399],[-7.8105,6.08622],[-7.82765,6.09777],[-7.83739,6.08328],[-7.84995,6.07867],[-7.84515,6.09197],[-7.8544,6.09603],[-7.8508,6.10395],[-7.85055,6.14896],[-7.8465,6.15673],[-7.83289,6.16403],[-7.8393,6.17197],[-7.83606,6.18325],[-7.84336,6.19194],[-7.82349,6.1919],[-7.82273,6.19743],[-7.84339,6.21475],[-7.85336,6.22987],[-7.87866,6.2457],[-7.88477,6.25574],[-7.89075,6.25455],[-7.90077,6.28366],[-7.90795,6.28397],[-7.9135,6.27262],[-7.91914,6.29252],[-7.92828,6.28043],[-7.94655,6.29953],[-7.95943,6.2849],[-7.97166,6.29898],[-7.9787,6.29406],[-7.98242,6.3014],[-7.9914,6.29588],[-7.99838,6.31638],[-8.00577,6.32066],[-8.04375,6.31295],[-8.04915,6.30608],[-8.06461,6.30738],[-8.07673,6.30082],[-8.09062,6.30549],[-8.10246,6.29145],[-8.1305,6.282],[-8.17459,6.27863],[-8.17608,6.28626],[-8.20153,6.30731],[-8.225,6.30795],[-8.24508,6.32345],[-8.25002,6.31853],[-8.26018,6.32288],[-8.26676,6.3187],[-8.28185,6.32111],[-8.28304,6.32814],[-8.26958,6.33545],[-8.28332,6.34041],[-8.28413,6.34916],[-8.30117,6.35307],[-8.30312,6.34799],[-8.30954,6.34904],[-8.31461,6.36176],[-8.3197,6.35893],[-8.343,6.37571],[-8.35505,6.36428],[-8.36686,6.36011],[-8.37568,6.36491],[-8.37718,6.35923],[-8.38659,6.36013],[-8.39139,6.35117],[-8.40774,6.36891],[-8.41551,6.36862],[-8.38754,6.3822],[-8.39664,6.39986],[-8.39521,6.411],[-8.40252,6.41923],[-8.40408,6.43217],[-8.41305,6.4271],[-8.39913,6.44533],[-8.43581,6.47117],[-8.44551,6.48658],[-8.45972,6.48451],[-8.45883,6.4703],[-8.4738,6.4582],[-8.49286,6.46173],[-8.50884,6.48089],[-8.53224,6.48368],[-8.56602,6.50435],[-8.60572,6.50162],[-8.61675,6.49603],[-8.62148,6.4905],[-8.61583,6.46408],[-8.62617,6.45953],[-8.6272,6.44852],[-8.6373,6.43755],[-8.64474,6.4128],[-8.65614,6.4006],[-8.65374,6.37235],[-8.65761,6.36163],[-8.67023,6.34215],[-8.6806,6.34073],[-8.69074,6.31382],[-8.71552,6.28395],[-8.72038,6.26333],[-8.72764,6.25607],[-8.72606,6.24074],[-8.74262,6.22103],[-8.74152,6.20723],[-8.75009,6.20525],[-8.75274,6.19733],[-8.77055,6.198],[-8.78675,6.18717],[-8.79255,6.19593],[-8.8015,6.18785],[-8.80857,6.1696],[-8.82148,6.1658],[-8.83058,6.17755],[-8.8352,6.16072],[-8.82376,6.15436],[-8.82597,6.1495],[-8.83621,6.14688],[-8.84087,6.12009],[-8.84557,6.12606],[-8.85029,6.12516],[-8.83535,6.09828],[-8.84418,6.0953],[-8.84314,6.0716],[-8.85238,6.04124],[-8.88272,6.02805],[-8.92686,6.02104],[-8.92943,6.01096],[-8.93942,6.01557],[-8.94669,6.00759],[-8.93877,6.00693],[-8.93813,5.99985],[-8.91279,5.97768],[-8.91335,5.97414],[-8.92149,5.97527],[-8.93153,5.95015],[-8.94669,5.93662],[-8.94502,5.93033],[-8.93696,5.92643],[-8.93871,5.90686],[-8.92948,5.90821],[-8.9274,5.92105],[-8.9223,5.92474],[-8.90693,5.9197],[-8.9175,5.91794],[-8.91543,5.91337],[-8.89615,5.91533],[-8.89917,5.90249],[-8.90714,5.89701],[-8.90557,5.88494],[-8.89104,5.87723],[-8.90691,5.86408],[-8.90753,5.85484],[-8.91572,5.85674],[-8.918,5.84327],[-8.92576,5.83923],[-8.92566,5.83006],[-8.93386,5.82627],[-8.93954,5.83385],[-8.97186,5.83635],[-8.99174,5.8215],[-9.00758,5.83737],[-9.0137,5.83702],[-9.01637,5.83078],[-9.046,5.81932],[-9.05172,5.83078],[-9.06315,5.82918],[-9.07195,5.84395],[-9.09589,5.82269],[-9.02821,5.78196],[-9.0067,5.74565],[-8.99315,5.73687],[-8.94774,5.72889],[-8.91707,5.71253],[-8.89158,5.71133],[-8.80196,5.68497],[-8.74173,5.68067],[-8.734,5.69209],[-8.73998,5.70089],[-8.73642,5.71379],[-8.74912,5.71193],[-8.75743,5.72325],[-8.75014,5.73671],[-8.75537,5.74682],[-8.72233,5.75777],[-8.67565,5.76484],[-8.62814,5.76439],[-8.55973,5.77525],[-8.54763,5.7911],[-8.53679,5.79568],[-8.52469,5.81696],[-8.51302,5.81486],[-8.48884,5.82486],[-8.48756,5.85199],[-8.47317,5.86137],[-8.45401,5.85676],[-8.36861,5.80909],[-8.36071,5.79405],[-8.35056,5.74333],[-8.35477,5.69992],[-8.37793,5.67302],[-8.38171,5.6484],[-8.40989,5.64533],[-8.42473,5.61747],[-8.40083,5.56784],[-8.36096,5.51019],[-8.29431,5.50926],[-8.28846,5.51818],[-8.27168,5.50073],[-8.2596,5.50071],[-8.24504,5.49384],[-8.25023,5.49609],[-8.24706,5.50027],[-8.24994,5.51977],[-8.24115,5.53405],[-8.08943,5.54344],[-8.05671,5.55431],[-8.04794,5.57478],[-8.06058,5.57707],[-8.06303,5.58313],[-8.04201,5.60584],[-8.01096,5.59923],[-7.8851,5.60208],[-7.80458,5.59691],[-7.79764,5.58916],[-7.78536,5.54794],[-7.77242,5.53533],[-7.50188,5.53077],[-7.49068,5.51659],[-7.44164,5.51702],[-7.42212,5.50977],[-7.40067,5.51397]]]}},{"type":"Feature","properties":{"NAME_1":"Grand Kru","shapeName":"Grand Kru","shapeISO":"LR-GK","shapeID":"1627179B73218899246114"},"geometry":{"type":"Polygon","coordinates":[[[-8.0091,5.065],[-8.02288,5.09491],[-8.04155,5.11798],[-8.06439,5.10359],[-8.08518,5.10222],[-8.11539,5.07469],[-8.15936,5.11946],[-8.21538,5.15841],[-8.24154,5.1704],[-8.25278,5.16401],[-8.27181,5.10679],[-8.29642,5.08417],[-8.30693,5.05687],[-8.32337,5.04637],[-8.34964,5.04477],[-8.37677,5.02786],[-8.39384,4.99657],[-8.56008,4.9872],[-8.60491,4.9052],[-8.694,4.82982],[-8.694,4.82194],[-8.70919,4.80697],[-8.61114,4.77737],[-8.5168,4.73497],[-8.47289,4.70263],[-8.4696,4.69212],[-8.45124,4.68189],[-8.45064,4.67503],[-8.40688,4.65274],[-8.32432,4.63008],[-8.30029,4.61464],[-8.29339,4.60075],[-8.269,4.59115],[-8.25008,4.57178],[-8.19165,4.55762],[-8.10462,4.54721],[-7.96463,4.51437],[-7.94633,4.50737],[-7.94053,4.49618],[-7.8471,4.46532],[-7.81907,4.4487],[-7.81899,4.45868],[-7.83103,4.46331],[-7.83541,4.47171],[-7.83336,4.47795],[-7.84117,4.48883],[-7.83517,4.49086],[-7.83585,4.49941],[-7.8052,4.52922],[-7.79749,4.59489],[-7.81689,4.60941],[-7.80495,4.645],[-7.7994,4.7098],[-7.8009,4.75317],[-7.83773,4.78188],[-7.92142,4.79815],[-7.98541,4.7992],[-8.02323,4.81283],[-8.08771,4.84909],[-8.04939,4.94001],[-8.03282,5.02692],[-8.02419,5.04734],[-8.0157,5.0514],[-8.0091,5.065]]]}},{"type":"Feature","properties":{"NAME_1":"Lofa","shapeName":"Lofa","shapeISO":"LR-LO","shapeID":"1627179B56799731812869"},"geometry":{"type":"Polygon","coordinates":[[[-9.48242,7.36664],[-9.48024,7.3746],[-9.48357,7.37659],[-9.47585,7.3863],[-9.47503,7.39658],[-9.47237,7.39509],[-9.46956,7.40902],[-9.47272,7.4135],[-9.46542,7.41964],[-9.4685,7.42586],[-9.46469,7.4373],[-9.45673,7.45041],[-9.4412,7.45565],[-9.43556,7.46644],[-9.42527,7.47259],[-9.42677,7.47806],[-9.41897,7.48785],[-9.40099,7.54268],[-9.39426,7.54509],[-9.38231,7.56782],[-9.38564,7.57345],[-9.3776,7.59112],[-9.36564,7.60241],[-9.36681,7.61103],[-9.35867,7.61784],[-9.35968,7.63028],[-9.36608,7.62853],[-9.37506,7.63698],[-9.37973,7.65903],[-9.37276,7.66766],[-9.37601,7.67272],[-9.3737,7.70009],[-9.35668,7.72324],[-9.35769,7.73799],[-9.34698,7.75235],[-9.35413,7.75234],[-9.35746,7.75947],[-9.35348,7.77175],[-9.35698,7.77838],[-9.36296,7.77705],[-9.35948,7.78833],[-9.37238,7.80531],[-9.36823,7.80814],[-9.37372,7.81195],[-9.38386,7.80696],[-9.39035,7.81094],[-9.39252,7.82487],[-9.40818,7.83792],[-9.40744,7.84577],[-9.42508,7.86743],[-9.42434,7.88312],[-9.43081,7.89208],[-9.42754,7.92118],[-9.43361,7.94591],[-9.42657,7.96253],[-9.41096,7.97427],[-9.41764,7.99849],[-9.39929,8.02859],[-9.40645,8.03704],[-9.40372,8.05023],[-9.40988,8.06183],[-9.42985,8.06364],[-9.45496,8.04271],[-9.45945,8.04652],[-9.44202,8.0827],[-9.45544,8.10565],[-9.45064,8.12788],[-9.46172,8.13508],[-9.46076,8.17554],[-9.4785,8.18158],[-9.48598,8.17891],[-9.49814,8.18553],[-9.50913,8.1832],[-9.51496,8.18899],[-9.50218,8.21753],[-9.50727,8.22723],[-9.49996,8.23934],[-9.50912,8.24182],[-9.49824,8.26182],[-9.48726,8.26962],[-9.4921,8.27808],[-9.50193,8.28238],[-9.50137,8.30667],[-9.51003,8.30716],[-9.52037,8.31776],[-9.48852,8.34591],[-9.48102,8.34127],[-9.48121,8.35653],[-9.49888,8.37359],[-9.5077,8.37374],[-9.51571,8.3802],[-9.55076,8.37974],[-9.56878,8.40409],[-9.56862,8.41023],[-9.59246,8.42561],[-9.59302,8.41143],[-9.60916,8.40378],[-9.63764,8.40506],[-9.64812,8.39709],[-9.6598,8.4105],[-9.65448,8.41366],[-9.65034,8.42726],[-9.646,8.42578],[-9.63502,8.43359],[-9.6204,8.45434],[-9.62425,8.46395],[-9.62941,8.46328],[-9.62992,8.47257],[-9.65283,8.47261],[-9.64753,8.49136],[-9.65619,8.49118],[-9.6627,8.4988],[-9.69691,8.48605],[-9.70142,8.4518],[-9.71406,8.43934],[-9.72506,8.44164],[-9.71493,8.45758],[-9.72194,8.46685],[-9.72643,8.46353],[-9.73427,8.47214],[-9.75016,8.54515],[-9.76858,8.5525],[-9.77731,8.54775],[-9.78595,8.53265],[-9.79511,8.53561],[-9.80143,8.52781],[-9.80225,8.52399],[-9.79793,8.52582],[-9.7975,8.51927],[-9.79032,8.51498],[-9.79089,8.5071],[-9.83219,8.50088],[-9.83009,8.4945],[-9.83792,8.49299],[-9.84272,8.48253],[-9.84706,8.48302],[-9.8434,8.48684],[-9.85392,8.49959],[-9.88185,8.49794],[-9.88739,8.49354],[-9.89598,8.49858],[-9.91596,8.4987],[-9.96245,8.47214],[-9.96493,8.46401],[-9.98506,8.45451],[-9.9897,8.44488],[-10.00984,8.44134],[-10.02264,8.43335],[-10.03405,8.43473],[-10.03815,8.42842],[-10.05151,8.42623],[-10.05768,8.42721],[-10.05923,8.44693],[-10.05427,8.46005],[-10.05661,8.46501],[-10.04261,8.48868],[-10.04814,8.50143],[-10.06499,8.51167],[-10.07281,8.50899],[-10.07467,8.51844],[-10.07882,8.51644],[-10.08317,8.5209],[-10.10197,8.51472],[-10.11927,8.53465],[-10.12856,8.52102],[-10.16305,8.52573],[-10.15952,8.51612],[-10.19204,8.50135],[-10.20513,8.48059],[-10.22978,8.48233],[-10.22432,8.4928],[-10.22999,8.49493],[-10.23821,8.48653],[-10.24456,8.49547],[-10.26152,8.48696],[-10.27503,8.49238],[-10.27984,8.48507],[-10.2748,8.47365],[-10.27753,8.46626],[-10.28352,8.46541],[-10.27684,8.4603],[-10.27063,8.4439],[-10.27666,8.43203],[-10.28033,8.43284],[-10.28047,8.42522],[-10.27363,8.41993],[-10.27642,8.40931],[-10.28174,8.40714],[-10.27829,8.39563],[-10.28677,8.39179],[-10.29024,8.38166],[-10.28679,8.3728],[-10.29557,8.35901],[-10.28926,8.33806],[-10.29655,8.32776],[-10.29823,8.30761],[-10.30338,8.3051],[-10.30086,8.29748],[-10.32004,8.28457],[-10.30821,8.25485],[-10.30883,8.24042],[-10.30151,8.2421],[-10.30181,8.23133],[-10.29631,8.22786],[-10.30112,8.19709],[-10.31842,8.19505],[-10.33272,8.16789],[-10.35088,8.15017],[-10.37088,8.16072],[-10.3719,8.16519],[-10.38703,8.16132],[-10.39042,8.15526],[-10.38458,8.15246],[-10.38807,8.1498],[-10.426,8.14884],[-10.43351,8.15511],[-10.46123,8.15874],[-10.47235,8.15058],[-10.49936,8.14575],[-10.52592,8.12941],[-10.52874,8.12525],[-10.52439,8.12013],[-10.53095,8.11571],[-10.53108,8.10759],[-10.55849,8.07657],[-10.57395,8.05073],[-10.60535,8.04083],[-10.60646,7.92055],[-10.56851,7.93843],[-10.56449,7.94755],[-10.55341,7.9499],[-10.54762,7.96352],[-10.54465,7.9509],[-10.43777,7.99095],[-10.43193,7.98447],[-10.39878,7.98914],[-10.39743,7.97587],[-10.33433,7.99826],[-10.3269,8.0135],[-10.31518,8.00642],[-10.2996,8.00841],[-10.29226,8.00018],[-10.29642,7.98008],[-10.31761,7.95104],[-10.32663,7.92834],[-10.32173,7.92026],[-10.31198,7.91835],[-10.293,7.92602],[-10.30159,7.89452],[-10.31982,7.88092],[-10.31718,7.86733],[-10.30349,7.85312],[-10.29506,7.85606],[-10.27897,7.85077],[-10.28643,7.82032],[-10.25394,7.84339],[-10.2484,7.83726],[-10.2338,7.84183],[-10.23103,7.83844],[-10.2404,7.82417],[-10.22443,7.80381],[-10.18681,7.81914],[-10.19043,7.7801],[-10.16899,7.77433],[-10.16474,7.76398],[-10.16892,7.74875],[-10.1783,7.73771],[-10.17504,7.73254],[-10.11211,7.74129],[-10.09565,7.73715],[-10.04615,7.73748],[-10.04469,7.74762],[-10.0283,7.74744],[-10.02299,7.73322],[-9.99157,7.73381],[-9.95167,7.74906],[-9.924,7.74771],[-9.90219,7.73925],[-9.86898,7.7138],[-9.83675,7.70536],[-9.76616,7.66649],[-9.75428,7.66466],[-9.68944,7.62186],[-9.66358,7.59161],[-9.63631,7.53265],[-9.65649,7.51632],[-9.65864,7.50395],[-9.66881,7.50917],[-9.68471,7.50128],[-9.68469,7.49166],[-9.69506,7.48549],[-9.68743,7.47307],[-9.70784,7.46244],[-9.70965,7.45518],[-9.71536,7.45284],[-9.71379,7.44662],[-9.71898,7.4435],[-9.70962,7.43704],[-9.7083,7.42087],[-9.69583,7.41364],[-9.7008,7.41073],[-9.69872,7.40265],[-9.68583,7.39811],[-9.69372,7.39312],[-9.70161,7.39539],[-9.70534,7.38792],[-9.72359,7.3859],[-9.72308,7.38053],[-9.71831,7.38116],[-9.72036,7.36665],[-9.72617,7.36498],[-9.72514,7.37203],[-9.72867,7.37285],[-9.72924,7.36348],[-9.7412,7.3623],[-9.73436,7.36122],[-9.73355,7.35668],[-9.747,7.35267],[-9.75664,7.33976],[-9.76518,7.29958],[-9.78189,7.2788],[-9.7913,7.27806],[-9.78543,7.27342],[-9.78542,7.26631],[-9.78131,7.27094],[-9.77462,7.26941],[-9.76319,7.25456],[-9.78063,7.25635],[-9.79085,7.24596],[-9.79295,7.22739],[-9.80264,7.21087],[-9.80763,7.21418],[-9.81724,7.2067],[-9.81136,7.19913],[-9.79579,7.19535],[-9.78971,7.18188],[-9.76524,7.18446],[-9.75277,7.1805],[-9.74933,7.18604],[-9.73996,7.1761],[-9.72763,7.18534],[-9.72071,7.18351],[-9.72024,7.19939],[-9.70597,7.19578],[-9.69881,7.20452],[-9.68172,7.19972],[-9.66095,7.20813],[-9.65776,7.21278],[-9.66123,7.22693],[-9.65247,7.23401],[-9.64929,7.2451],[-9.65479,7.24522],[-9.65526,7.2506],[-9.64804,7.2626],[-9.65407,7.26752],[-9.6516,7.27566],[-9.60829,7.28647],[-9.59236,7.29892],[-9.5633,7.30697],[-9.53816,7.32478],[-9.50262,7.336],[-9.49632,7.33967],[-9.48242,7.36664]]]}},{"type":"Feature","properties":{"NAME_1":"Margibi","shapeName":"Margibi","shapeISO":"LR-MG","shapeID":"1627179B42027709959095"},"geometry":{"type":"Polygon","coordinates":[[[-10.37771,6.77211],[-10.37174,6.76544],[-10.3786,6.75479],[-10.37559,6.72254],[-10.39168,6.70787],[-10.3972,6.6872],[-10.43182,6.67437],[-10.43115,6.65976],[-10.43656,6.65139],[-10.43232,6.6298],[-10.41414,6.62547],[-10.39652,6.59525],[-10.3928,6.5965],[-10.37873,6.57798],[-10.36794,6.52488],[-10.37707,6.51586],[-10.38546,6.48286],[-10.39203,6.47985],[-10.38918,6.46521],[-10.39614,6.46238],[-10.39094,6.42889],[-10.40483,6.40082],[-10.3979,6.38113],[-10.40509,6.36772],[-10.4131,6.368],[-10.40829,6.38455],[-10.41144,6.39213],[-10.42147,6.37903],[-10.44635,6.36955],[-10.46949,6.37982],[-10.48742,6.36881],[-10.55167,6.38786],[-10.57728,6.38091],[-10.59239,6.3596],[-10.65207,6.34179],[-10.64715,6.30154],[-10.65905,6.2582],[-10.65196,6.24906],[-10.6463,6.25323],[-10.63519,6.23832],[-10.62259,6.2397],[-10.62865,6.21621],[-10.55753,6.19849],[-10.39579,6.14606],[-10.37231,6.12436],[-10.36939,6.12947],[-10.38136,6.13992],[-10.38084,6.14742],[-10.35533,6.15513],[-10.35767,6.1779],[-10.34033,6.19816],[-10.35551,6.23262],[-10.34651,6.25572],[-10.33526,6.26677],[-10.3279,6.2659],[-10.33191,6.27569],[-10.31994,6.27015],[-10.30874,6.29217],[-10.29639,6.30062],[-10.30305,6.30573],[-10.30053,6.31266],[-10.31317,6.31465],[-10.30154,6.32693],[-10.31369,6.34511],[-10.30507,6.34572],[-10.29987,6.34083],[-10.29759,6.35],[-10.28615,6.35659],[-10.28729,6.36139],[-10.28189,6.35986],[-10.27969,6.36789],[-10.26904,6.37045],[-10.2717,6.38037],[-10.26527,6.38208],[-10.26708,6.38941],[-10.26067,6.39787],[-10.26957,6.41263],[-10.27108,6.42572],[-10.26,6.42722],[-10.25191,6.44261],[-10.23729,6.44195],[-10.2342,6.4511],[-10.23813,6.46206],[-10.23043,6.46142],[-10.22427,6.48657],[-10.22036,6.48824],[-10.23369,6.4937],[-10.23593,6.48477],[-10.23988,6.48587],[-10.241,6.49608],[-10.23396,6.50266],[-10.25188,6.51726],[-10.25075,6.53716],[-10.22648,6.54748],[-10.21805,6.54547],[-10.21053,6.55597],[-10.20665,6.5494],[-10.19036,6.54205],[-10.18745,6.55216],[-10.1766,6.55407],[-10.17095,6.54782],[-10.16261,6.54801],[-10.16845,6.53289],[-10.15362,6.51926],[-10.14992,6.50785],[-10.13934,6.50994],[-10.12587,6.50403],[-10.11454,6.48734],[-10.10553,6.48223],[-10.09802,6.4942],[-10.08532,6.49154],[-10.08182,6.48623],[-10.07445,6.48989],[-10.05826,6.47344],[-10.03971,6.47046],[-10.03954,6.46318],[-10.02977,6.46221],[-10.02254,6.45326],[-10.00658,6.45476],[-10.00048,6.44626],[-9.98079,6.43952],[-9.97263,6.44663],[-9.95177,6.45129],[-9.94806,6.45717],[-9.94572,6.46755],[-9.94098,6.46948],[-9.94565,6.48197],[-9.93764,6.48992],[-9.93771,6.50064],[-9.93062,6.50588],[-9.91831,6.53248],[-9.90334,6.54113],[-9.89231,6.56614],[-9.87804,6.58371],[-9.87877,6.61218],[-9.8732,6.62315],[-9.88143,6.62099],[-9.89062,6.60571],[-9.92256,6.62863],[-9.9238,6.64139],[-9.91474,6.66652],[-9.91891,6.67831],[-9.92537,6.68176],[-9.95631,6.67268],[-9.9777,6.68527],[-9.99949,6.67616],[-10.03511,6.68895],[-10.05573,6.68066],[-10.06023,6.6726],[-10.08228,6.67114],[-10.09672,6.69053],[-10.1147,6.69189],[-10.12205,6.70134],[-10.13745,6.69954],[-10.14757,6.70351],[-10.16357,6.69334],[-10.17485,6.69666],[-10.171,6.7428],[-10.16197,6.75161],[-10.14952,6.75241],[-10.14572,6.76809],[-10.15021,6.78114],[-10.12188,6.82715],[-10.12471,6.85403],[-10.14679,6.897],[-10.18489,6.88416],[-10.19762,6.87153],[-10.24492,6.85082],[-10.28634,6.82106],[-10.34042,6.81154],[-10.35234,6.78585],[-10.37771,6.77211]]]}},{"type":"Feature","properties":{"NAME_1":"Maryland","shapeName":"Maryland","shapeISO":"LR-MY","shapeID":"1627179B42926997018975"},"geometry":{"type":"Polygon","coordinates":[[[-7.83196,4.4565],[-7.81736,4.43317],[-7.82841,4.41936],[-7.80635,4.41507],[-7.78627,4.40379],[-7.78228,4.3997],[-7.78521,4.39207],[-7.72928,4.37982],[-7.72396,4.37265],[-7.72931,4.36497],[-7.71965,4.37152],[-7.68198,4.36925],[-7.6306,4.3634],[-7.6109,4.354],[-7.58082,4.3611],[-7.52494,4.36051],[-7.53119,4.37037],[-7.56117,4.38559],[-7.56698,4.40039],[-7.55788,4.42087],[-7.53953,4.43536],[-7.56324,4.45116],[-7.56697,4.46085],[-7.55304,4.48842],[-7.55681,4.50236],[-7.55229,4.51192],[-7.56442,4.53352],[-7.56333,4.54137],[-7.55641,4.54334],[-7.56067,4.55508],[-7.55701,4.56325],[-7.57353,4.58657],[-7.55663,4.59401],[-7.5484,4.60986],[-7.56156,4.64749],[-7.57602,4.65462],[-7.57239,4.66239],[-7.55955,4.66766],[-7.57177,4.68658],[-7.55724,4.6939],[-7.56319,4.71688],[-7.55899,4.73515],[-7.5674,4.76851],[-7.56107,4.78295],[-7.59263,4.79945],[-7.59197,4.82253],[-7.61904,4.82638],[-7.63001,4.85039],[-7.65148,4.85089],[-7.66128,4.86363],[-7.68621,4.86559],[-7.70935,4.88102],[-7.71036,4.88652],[-7.71536,4.88266],[-7.72253,4.88596],[-7.73783,4.87561],[-7.75373,4.87991],[-7.75574,4.87464],[-7.76253,4.87436],[-7.76464,4.86689],[-7.78233,4.85753],[-7.79327,4.85664],[-7.79441,4.86307],[-7.80043,4.8602],[-7.80283,4.8658],[-7.80941,4.85936],[-7.82584,4.86207],[-7.83593,4.85677],[-7.84118,4.86003],[-7.84006,4.87943],[-7.84788,4.89402],[-7.8415,4.9062],[-7.84203,4.92645],[-7.83399,4.94696],[-7.83156,4.97866],[-7.8409,5.00683],[-7.82889,5.03949],[-7.83237,5.08176],[-7.81953,5.1249],[-7.85571,5.14244],[-7.88977,5.13188],[-7.93918,5.10173],[-7.94187,5.07401],[-7.95786,5.05517],[-7.98375,5.03873],[-8.00043,5.05203],[-8.00633,5.06804],[-8.0157,5.0514],[-8.02358,5.0482],[-8.03678,5.013],[-8.04336,4.98373],[-8.03982,4.97687],[-8.04532,4.97319],[-8.05668,4.91703],[-8.08771,4.84909],[-8.02323,4.81283],[-7.98541,4.7992],[-7.92142,4.79815],[-7.83773,4.78188],[-7.8009,4.75317],[-7.7994,4.7098],[-7.80495,4.645],[-7.81689,4.60941],[-7.79869,4.59731],[-7.79705,4.58332],[-7.8052,4.52922],[-7.83585,4.49941],[-7.83517,4.49086],[-7.84117,4.48883],[-7.83336,4.47795],[-7.83541,4.47171],[-7.83103,4.46331],[-7.82373,4.46352],[-7.81794,4.45644],[-7.8174,4.44992],[-7.8213,4.44861],[-7.83196,4.4565]]]}},{"type":"Feature","properties":{"NAME_1":"Montserrado","shapeName":"Montserrado","shapeISO":"LR-MO","shapeID":"1627179B44982627598129"},"geometry":{"type":"Polygon","coordinates":[[[-10.95137,6.55281],[-10.95632,6.52175],[-10.86195,6.45962],[-10.81336,6.40581],[-10.80141,6.3818],[-10.79103,6.38482],[-10.78431,6.3944],[-10.74435,6.4019],[-10.74159,6.41015],[-10.74436,6.40151],[-10.75233,6.3964],[-10.77211,6.39454],[-10.77484,6.39141],[-10.77067,6.39023],[-10.77771,6.38777],[-10.77926,6.37335],[-10.77199,6.36042],[-10.7812,6.3781],[-10.77481,6.3926],[-10.78431,6.39352],[-10.79265,6.37913],[-10.79796,6.37909],[-10.79251,6.35912],[-10.80451,6.32279],[-10.79171,6.32958],[-10.78427,6.32685],[-10.78163,6.33112],[-10.75668,6.32398],[-10.75353,6.3266],[-10.74896,6.31656],[-10.73947,6.31525],[-10.73987,6.30901],[-10.72886,6.31554],[-10.73112,6.30962],[-10.72447,6.28722],[-10.71361,6.28066],[-10.72524,6.27836],[-10.72838,6.28381],[-10.7352,6.28288],[-10.74242,6.27441],[-10.74127,6.28928],[-10.74921,6.29781],[-10.76443,6.30297],[-10.76615,6.30894],[-10.77767,6.30631],[-10.77909,6.30261],[-10.7716,6.29741],[-10.77968,6.30153],[-10.79145,6.29887],[-10.79766,6.31566],[-10.80641,6.32221],[-10.80402,6.33099],[-10.81714,6.32167],[-10.8182,6.31247],[-10.76064,6.27311],[-10.71321,6.25712],[-10.69567,6.23418],[-10.62866,6.21759],[-10.62259,6.2397],[-10.63519,6.23832],[-10.6463,6.25323],[-10.65196,6.24906],[-10.65905,6.2582],[-10.64715,6.30154],[-10.65207,6.34179],[-10.59494,6.35835],[-10.57728,6.38091],[-10.55167,6.38786],[-10.48742,6.36881],[-10.46949,6.37982],[-10.44635,6.36955],[-10.42147,6.37903],[-10.41144,6.39213],[-10.40829,6.38455],[-10.4131,6.368],[-10.40509,6.36772],[-10.3979,6.38113],[-10.40483,6.40082],[-10.39094,6.42889],[-10.39614,6.46238],[-10.38918,6.46521],[-10.39203,6.47985],[-10.38546,6.48286],[-10.37707,6.51586],[-10.36794,6.52488],[-10.37873,6.57798],[-10.3928,6.5965],[-10.39652,6.59525],[-10.41414,6.62547],[-10.43232,6.6298],[-10.43656,6.65139],[-10.43115,6.65976],[-10.43182,6.67437],[-10.3972,6.6872],[-10.39168,6.70787],[-10.37559,6.72254],[-10.3786,6.75479],[-10.37174,6.76544],[-10.37771,6.77211],[-10.45471,6.77561],[-10.51149,6.82925],[-10.55422,6.81109],[-10.56649,6.7765],[-10.57417,6.76776],[-10.57394,6.72788],[-10.59725,6.71363],[-10.58763,6.68942],[-10.59631,6.68763],[-10.60197,6.68008],[-10.6108,6.65197],[-10.60843,6.63275],[-10.59073,6.61856],[-10.59688,6.60824],[-10.65123,6.59088],[-10.68772,6.59292],[-10.70819,6.58704],[-10.7176,6.56679],[-10.71395,6.56362],[-10.75553,6.5255],[-10.77212,6.52323],[-10.78718,6.52914],[-10.79298,6.54079],[-10.77633,6.55137],[-10.78223,6.56112],[-10.78321,6.58284],[-10.81323,6.59206],[-10.82855,6.58917],[-10.8291,6.57459],[-10.84256,6.5692],[-10.83601,6.52742],[-10.80872,6.51948],[-10.80673,6.50753],[-10.81061,6.50153],[-10.80851,6.49096],[-10.82487,6.49158],[-10.83917,6.47423],[-10.84568,6.4831],[-10.8519,6.48054],[-10.85472,6.48407],[-10.85797,6.47656],[-10.86486,6.48277],[-10.87044,6.47693],[-10.87321,6.48326],[-10.88043,6.4801],[-10.87862,6.48927],[-10.88339,6.4921],[-10.87472,6.51515],[-10.89605,6.52264],[-10.91412,6.55789],[-10.9424,6.56203],[-10.95137,6.55281]],[[-10.74612,6.38996],[-10.742,6.39302],[-10.74141,6.386],[-10.75037,6.36989],[-10.75749,6.36632],[-10.75604,6.36028],[-10.76252,6.35961],[-10.76947,6.34845],[-10.77889,6.34641],[-10.76475,6.35904],[-10.76676,6.3756],[-10.74612,6.38996]]]}},{"type":"Feature","properties":{"NAME_1":"Nimba","shapeName":"Nimba","shapeISO":"LR-NI","shapeID":"1627179B84371361469065"},"geometry":{"type":"Polygon","coordinates":[[[-9.17961,6.62419],[-9.16204,6.59948],[-9.16544,6.57154],[-9.15832,6.52774],[-9.16638,6.49732],[-9.15763,6.48737],[-9.12895,6.48837],[-9.13142,6.43269],[-9.12013,6.40709],[-9.06763,6.34957],[-9.07102,6.33599],[-9.10336,6.32751],[-9.09098,6.30275],[-9.0885,6.26376],[-9.07897,6.26333],[-9.07482,6.25088],[-9.10423,6.23571],[-9.13171,6.23851],[-9.13532,6.23399],[-9.15983,6.23176],[-9.16,6.20775],[-9.15032,6.19864],[-9.1476,6.17513],[-9.11457,6.16903],[-9.12177,6.14512],[-9.09665,6.1107],[-9.09554,6.08747],[-9.17373,6.11421],[-9.22028,6.07423],[-9.16456,6.04722],[-9.09381,6.02468],[-9.07448,6.0019],[-9.10004,5.9853],[-9.10427,5.96834],[-9.0901,5.94875],[-9.07691,5.94297],[-9.08029,5.93684],[-9.09074,5.93467],[-9.09318,5.92021],[-9.07229,5.88484],[-9.08051,5.86459],[-9.0794,5.85146],[-9.09472,5.835],[-9.09169,5.82873],[-9.08514,5.82992],[-9.07195,5.84395],[-9.06315,5.82918],[-9.05172,5.83078],[-9.046,5.81932],[-9.01637,5.83078],[-9.0137,5.83702],[-9.00758,5.83737],[-8.99174,5.8215],[-8.97186,5.83635],[-8.93954,5.83385],[-8.93386,5.82627],[-8.92566,5.83006],[-8.92576,5.83923],[-8.918,5.84327],[-8.91572,5.85674],[-8.90753,5.85484],[-8.90691,5.86408],[-8.89118,5.88013],[-8.90557,5.88494],[-8.90714,5.89701],[-8.89917,5.90249],[-8.89615,5.91533],[-8.91751,5.91441],[-8.9175,5.91794],[-8.90693,5.9197],[-8.90931,5.92296],[-8.9223,5.92474],[-8.9274,5.92105],[-8.92948,5.90821],[-8.93871,5.90686],[-8.93696,5.92643],[-8.94502,5.93033],[-8.94669,5.93662],[-8.93153,5.95015],[-8.92149,5.97527],[-8.91259,5.97503],[-8.93813,5.99985],[-8.93877,6.00693],[-8.94669,6.00759],[-8.94443,6.0121],[-8.93605,6.01543],[-8.93156,6.01005],[-8.92686,6.02104],[-8.88272,6.02805],[-8.85238,6.04124],[-8.84314,6.0716],[-8.84418,6.0953],[-8.83535,6.09828],[-8.85029,6.12516],[-8.84557,6.12606],[-8.84087,6.12009],[-8.83621,6.14688],[-8.82597,6.1495],[-8.82376,6.15436],[-8.8352,6.16072],[-8.83058,6.17755],[-8.82148,6.1658],[-8.80857,6.1696],[-8.8015,6.18785],[-8.79255,6.19593],[-8.78675,6.18717],[-8.77055,6.198],[-8.75274,6.19733],[-8.75009,6.20525],[-8.74152,6.20723],[-8.74262,6.22103],[-8.72606,6.24074],[-8.72764,6.25607],[-8.72038,6.26333],[-8.71552,6.28395],[-8.69074,6.31382],[-8.6806,6.34073],[-8.67023,6.34215],[-8.65761,6.36163],[-8.65374,6.37235],[-8.65614,6.4006],[-8.64474,6.4128],[-8.6373,6.43755],[-8.6272,6.44852],[-8.62617,6.45953],[-8.61583,6.46408],[-8.62148,6.4905],[-8.603,6.5058],[-8.59744,6.52504],[-8.58855,6.52947],[-8.58227,6.52318],[-8.57227,6.52317],[-8.56745,6.54241],[-8.55597,6.55165],[-8.56855,6.55499],[-8.56113,6.56942],[-8.54634,6.55941],[-8.53894,6.56089],[-8.53782,6.56903],[-8.52967,6.57716],[-8.53595,6.58716],[-8.53372,6.59826],[-8.53815,6.60789],[-8.53297,6.61343],[-8.52298,6.60676],[-8.52632,6.59714],[-8.51485,6.59713],[-8.50781,6.60194],[-8.50557,6.61748],[-8.49706,6.62006],[-8.49633,6.61377],[-8.48781,6.6145],[-8.48842,6.63246],[-8.48113,6.63041],[-8.47706,6.63817],[-8.46781,6.63409],[-8.46669,6.63853],[-8.45151,6.64222],[-8.45297,6.66183],[-8.44398,6.66746],[-8.43729,6.65829],[-8.42829,6.6793],[-8.42134,6.67233],[-8.41129,6.68526],[-8.40478,6.68457],[-8.41025,6.69554],[-8.40579,6.69897],[-8.4123,6.70412],[-8.41023,6.71029],[-8.39171,6.71678],[-8.39615,6.72638],[-8.38313,6.71951],[-8.37866,6.73013],[-8.38552,6.73082],[-8.3862,6.73597],[-8.37419,6.74007],[-8.37144,6.74795],[-8.36801,6.74863],[-8.36836,6.74177],[-8.36527,6.74417],[-8.36045,6.75856],[-8.36456,6.76131],[-8.35975,6.76747],[-8.34637,6.76746],[-8.3481,6.76095],[-8.34295,6.76265],[-8.34956,6.79749],[-8.33639,6.79775],[-8.33391,6.80323],[-8.32815,6.8035],[-8.33005,6.81639],[-8.32539,6.81227],[-8.3199,6.81473],[-8.33003,6.83394],[-8.31684,6.84188],[-8.30847,6.86304],[-8.31483,6.86656],[-8.31968,6.85779],[-8.3291,6.86987],[-8.32404,6.87315],[-8.33632,6.88392],[-8.32555,6.8929],[-8.32751,6.90365],[-8.31171,6.90276],[-8.30664,6.91262],[-8.31857,6.92642],[-8.3207,6.95926],[-8.32561,6.97064],[-8.30676,6.97293],[-8.3003,6.98095],[-8.28297,6.98873],[-8.28351,7.00151],[-8.27547,7.00602],[-8.28146,7.00999],[-8.27873,7.01801],[-8.29016,7.01893],[-8.29287,7.02685],[-8.28754,7.03205],[-8.30591,7.08681],[-8.29767,7.14039],[-8.27832,7.15402],[-8.28242,7.16995],[-8.27952,7.18354],[-8.28721,7.18849],[-8.2934,7.18425],[-8.29641,7.19112],[-8.30795,7.19628],[-8.31992,7.19287],[-8.31866,7.20522],[-8.33584,7.20799],[-8.3387,7.22475],[-8.34735,7.23286],[-8.3534,7.23136],[-8.36864,7.24834],[-8.35692,7.27152],[-8.36034,7.2821],[-8.37449,7.29502],[-8.37393,7.30312],[-8.38201,7.30688],[-8.39507,7.32601],[-8.40068,7.41081],[-8.41352,7.43246],[-8.40723,7.4475],[-8.40688,7.46667],[-8.45866,7.50161],[-8.50565,7.50759],[-8.51851,7.51865],[-8.5196,7.52853],[-8.50713,7.55894],[-8.50387,7.58396],[-8.55781,7.62534],[-8.54987,7.66742],[-8.55829,7.68888],[-8.54936,7.69755],[-8.55145,7.70128],[-8.67455,7.70024],[-8.68063,7.67345],[-8.70294,7.65476],[-8.71286,7.63871],[-8.7053,7.62538],[-8.71521,7.61138],[-8.71026,7.60603],[-8.72188,7.57284],[-8.7193,7.56375],[-8.72275,7.55551],[-8.7188,7.54881],[-8.71209,7.55327],[-8.71055,7.54246],[-8.71589,7.52856],[-8.70786,7.51242],[-8.73388,7.4927],[-8.73539,7.48434],[-8.73969,7.48477],[-8.76313,7.45561],[-8.76636,7.45926],[-8.77517,7.45175],[-8.77217,7.44639],[-8.78083,7.41319],[-8.79023,7.41749],[-8.79534,7.41266],[-8.80232,7.41696],[-8.80179,7.40837],[-8.80985,7.40382],[-8.81388,7.41026],[-8.82974,7.37567],[-8.85312,7.34833],[-8.84265,7.33116],[-8.84695,7.31909],[-8.83702,7.31024],[-8.84105,7.30783],[-8.8389,7.30327],[-8.84481,7.30622],[-8.83608,7.28939],[-8.83844,7.27431],[-8.84683,7.27297],[-8.84588,7.26824],[-8.85254,7.26359],[-8.86127,7.26661],[-8.86631,7.25756],[-8.87,7.26158],[-8.88007,7.25723],[-8.8935,7.26494],[-8.90391,7.25656],[-8.90592,7.26427],[-8.91095,7.26327],[-8.90827,7.27567],[-8.91599,7.27869],[-8.91296,7.28874],[-8.91598,7.29612],[-8.92136,7.28975],[-8.94418,7.2864],[-8.93848,7.27701],[-8.94351,7.27534],[-8.94318,7.26863],[-8.96097,7.27366],[-8.96701,7.26495],[-8.96265,7.26168],[-8.96978,7.25372],[-9.00042,7.25205],[-9.00251,7.24744],[-9.01888,7.24785],[-9.02098,7.24366],[-9.02685,7.24702],[-9.03524,7.23193],[-9.04321,7.23193],[-9.04279,7.22271],[-9.06167,7.20805],[-9.07174,7.20637],[-9.07342,7.19883],[-9.09356,7.21265],[-9.10363,7.20594],[-9.11231,7.18421],[-9.10695,7.17987],[-9.13491,7.10203],[-9.13275,7.09307],[-9.16861,7.0611],[-9.15802,7.04488],[-9.16131,7.03003],[-9.17453,7.02672],[-9.16395,7.00527],[-9.17831,6.99487],[-9.18871,6.99424],[-9.19307,6.98398],[-9.19387,6.97698],[-9.18024,6.95844],[-9.1699,6.96057],[-9.15481,6.94739],[-9.15732,6.93159],[-9.14208,6.91911],[-9.14269,6.91019],[-9.12361,6.90617],[-9.11992,6.89049],[-9.10732,6.883],[-9.1156,6.87622],[-9.10416,6.8543],[-9.1175,6.84953],[-9.11375,6.84875],[-9.11627,6.82819],[-9.11422,6.82445],[-9.11175,6.82984],[-9.10803,6.82589],[-9.11128,6.81639],[-9.10808,6.80098],[-9.12938,6.77916],[-9.13927,6.77788],[-9.13294,6.76117],[-9.1246,6.75715],[-9.12197,6.74922],[-9.12648,6.74557],[-9.13582,6.74753],[-9.14387,6.73423],[-9.14202,6.72409],[-9.15325,6.72639],[-9.16003,6.71793],[-9.14902,6.70729],[-9.15631,6.70075],[-9.14957,6.69065],[-9.16095,6.67751],[-9.16687,6.68216],[-9.17337,6.67843],[-9.17236,6.67244],[-9.15859,6.66118],[-9.16706,6.65492],[-9.17961,6.62419]]]}},{"type":"Feature","properties":{"NAME_1":"River Gee","shapeName":"River Gee","shapeISO":"LR-RI","shapeID":"1627179B79218106656993"},"geometry":{"type":"Polygon","coordinates":[[[-8.24504,5.49384],[-8.22841,5.47698],[-8.17612,5.44362],[-8.1205,5.44165],[-8.07874,5.42256],[-8.0714,5.38247],[-8.07242,5.37076],[-8.08456,5.36298],[-8.08135,5.35436],[-8.09583,5.33428],[-8.12445,5.35143],[-8.17242,5.32837],[-8.1825,5.33583],[-8.19743,5.33202],[-8.21653,5.33337],[-8.22347,5.33812],[-8.24303,5.30364],[-8.24417,5.29455],[-8.23508,5.28281],[-8.24789,5.25242],[-8.25278,5.16401],[-8.23788,5.17063],[-8.19483,5.14539],[-8.15936,5.11946],[-8.11539,5.07469],[-8.08518,5.10222],[-8.06439,5.10359],[-8.03949,5.11707],[-8.02288,5.09491],[-8.0091,5.065],[-8.00633,5.06804],[-8.00043,5.05203],[-7.98375,5.03873],[-7.95786,5.05517],[-7.94187,5.07401],[-7.93918,5.10173],[-7.88977,5.13188],[-7.86237,5.14167],[-7.84343,5.13904],[-7.81953,5.1249],[-7.83237,5.08176],[-7.82889,5.03949],[-7.8409,5.00683],[-7.83156,4.97866],[-7.83399,4.94696],[-7.84203,4.92645],[-7.8415,4.9062],[-7.84788,4.89402],[-7.84006,4.87943],[-7.84118,4.86003],[-7.83593,4.85677],[-7.82584,4.86207],[-7.80941,4.85936],[-7.80283,4.8658],[-7.80043,4.8602],[-7.79441,4.86307],[-7.79327,4.85664],[-7.78233,4.85753],[-7.76464,4.86689],[-7.76253,4.87436],[-7.75574,4.87464],[-7.75373,4.87991],[-7.73783,4.87561],[-7.72253,4.88596],[-7.71536,4.88266],[-7.71036,4.88652],[-7.70935,4.88102],[-7.68621,4.86559],[-7.66128,4.86363],[-7.65148,4.85089],[-7.63001,4.85039],[-7.61904,4.82638],[-7.59954,4.82078],[-7.58348,4.8274],[-7.59232,4.84994],[-7.58394,4.85887],[-7.58274,4.86928],[-7.58965,4.87359],[-7.58931,4.88045],[-7.59879,4.89245],[-7.59369,4.90722],[-7.57928,4.91082],[-7.56994,4.90617],[-7.56376,4.9108],[-7.56065,4.92239],[-7.54996,4.92421],[-7.54139,4.91539],[-7.52712,4.91806],[-7.52518,4.92541],[-7.53556,4.93406],[-7.53752,4.9466],[-7.53283,4.95365],[-7.54436,4.96682],[-7.55705,4.96939],[-7.55992,4.97461],[-7.54664,4.98539],[-7.54082,4.99968],[-7.55504,5.02098],[-7.54527,5.04182],[-7.56034,5.08368],[-7.54794,5.09521],[-7.51812,5.11043],[-7.51321,5.10557],[-7.5156,5.09867],[-7.50976,5.09473],[-7.49621,5.11674],[-7.48617,5.1229],[-7.47259,5.15728],[-7.4706,5.18241],[-7.47485,5.19032],[-7.469,5.19928],[-7.48446,5.21742],[-7.48188,5.22583],[-7.46429,5.24117],[-7.46617,5.26089],[-7.47811,5.26827],[-7.47435,5.28026],[-7.47065,5.28253],[-7.46199,5.27524],[-7.45158,5.28704],[-7.43222,5.2974],[-7.4167,5.29982],[-7.41982,5.28823],[-7.42884,5.28314],[-7.41908,5.27353],[-7.4289,5.25948],[-7.42179,5.25875],[-7.40906,5.2708],[-7.40092,5.28702],[-7.39157,5.2906],[-7.39547,5.3075],[-7.39197,5.31522],[-7.38543,5.31018],[-7.36857,5.33258],[-7.36954,5.33798],[-7.38447,5.34478],[-7.37635,5.38826],[-7.38755,5.38519],[-7.38912,5.37321],[-7.40147,5.36684],[-7.41878,5.37906],[-7.43397,5.41247],[-7.44894,5.43128],[-7.44095,5.44437],[-7.43514,5.4331],[-7.42064,5.43064],[-7.41631,5.44945],[-7.42375,5.47648],[-7.41883,5.48544],[-7.41182,5.48407],[-7.40688,5.48936],[-7.40016,5.51383],[-7.42212,5.50977],[-7.44164,5.51702],[-7.49068,5.51659],[-7.50188,5.53077],[-7.77242,5.53533],[-7.78536,5.54794],[-7.79764,5.58916],[-7.80458,5.59691],[-7.8851,5.60208],[-8.01096,5.59923],[-8.04201,5.60584],[-8.06303,5.58313],[-8.06058,5.57707],[-8.04794,5.57478],[-8.05671,5.55431],[-8.08943,5.54344],[-8.24115,5.53405],[-8.24994,5.51977],[-8.24706,5.50027],[-8.25023,5.49609],[-8.24504,5.49384]]]}},{"type":"Feature","properties":{"NAME_1":"Rivercess","shapeName":"Rivercess","shapeISO":"LR-RG","shapeID":"1627179B71095179953326"},"geometry":{"type":"Polygon","coordinates":[[[-9.72904,5.57313],[-9.71617,5.55558],[-9.70174,5.55026],[-9.67952,5.53538],[-9.67329,5.52604],[-9.63263,5.50117],[-9.63352,5.49806],[-9.59252,5.47406],[-9.5845,5.46124],[-9.58381,5.44708],[-9.59504,5.4338],[-9.5493,5.41694],[-9.5182,5.39538],[-9.51686,5.38827],[-9.50488,5.38605],[-9.49221,5.37294],[-9.48708,5.34068],[-9.4622,5.31467],[-9.46397,5.30866],[-9.44421,5.29355],[-9.43421,5.27843],[-9.42444,5.27754],[-9.41601,5.27021],[-9.41379,5.27666],[-9.42579,5.29245],[-9.42542,5.31034],[-9.4127,5.31226],[-9.38231,5.32785],[-9.3755,5.34888],[-9.34729,5.35662],[-9.32595,5.37194],[-9.31848,5.38693],[-9.32496,5.41176],[-9.32189,5.42424],[-9.29937,5.42817],[-9.29485,5.4329],[-9.29424,5.44715],[-9.3079,5.46834],[-9.30388,5.4865],[-9.29394,5.49532],[-9.29198,5.53275],[-9.28417,5.54058],[-9.26152,5.54705],[-9.247,5.5573],[-9.23623,5.57729],[-9.20274,5.58156],[-9.1755,5.60555],[-9.13242,5.60798],[-9.09619,5.5991],[-9.0938,5.61385],[-9.1164,5.6505],[-9.09586,5.67769],[-9.09204,5.69995],[-9.13161,5.75382],[-9.15524,5.76217],[-9.13161,5.7846],[-9.11779,5.82153],[-9.09156,5.82292],[-9.09472,5.835],[-9.0794,5.85146],[-9.08051,5.86459],[-9.07251,5.87838],[-9.07318,5.89129],[-9.08762,5.9053],[-9.09318,5.92021],[-9.09074,5.93467],[-9.08029,5.93684],[-9.07691,5.94297],[-9.0901,5.94875],[-9.10427,5.96834],[-9.10004,5.9853],[-9.07448,6.0019],[-9.09381,6.02468],[-9.16456,6.04722],[-9.22028,6.07423],[-9.17373,6.11421],[-9.09554,6.08747],[-9.09421,6.09164],[-9.09665,6.1107],[-9.12177,6.14512],[-9.11457,6.16903],[-9.1476,6.17513],[-9.15032,6.19864],[-9.16,6.20775],[-9.15983,6.23176],[-9.13532,6.23399],[-9.13171,6.23851],[-9.10423,6.23571],[-9.07482,6.25088],[-9.07897,6.26333],[-9.0885,6.26376],[-9.09098,6.30275],[-9.10336,6.32751],[-9.07102,6.33599],[-9.06763,6.34957],[-9.12013,6.40709],[-9.13142,6.43269],[-9.12895,6.48837],[-9.15763,6.48737],[-9.16651,6.49924],[-9.18198,6.45366],[-9.17735,6.41162],[-9.23621,6.36485],[-9.26667,6.3591],[-9.28435,6.35017],[-9.32917,6.35235],[-9.33096,6.32565],[-9.34189,6.30724],[-9.36543,6.30857],[-9.37871,6.31665],[-9.38263,6.32546],[-9.3937,6.32575],[-9.39787,6.33135],[-9.4089,6.30644],[-9.40738,6.2886],[-9.41377,6.27678],[-9.41519,6.2113],[-9.40555,6.18392],[-9.41487,6.16281],[-9.42496,6.15878],[-9.44259,6.16416],[-9.46486,6.16203],[-9.47484,6.15448],[-9.48135,6.15767],[-9.49598,6.14002],[-9.49993,6.12726],[-9.5062,6.12823],[-9.51054,6.11779],[-9.50672,6.11388],[-9.5232,6.09514],[-9.52768,6.06909],[-9.54061,6.08836],[-9.5415,6.09281],[-9.53645,6.09384],[-9.53915,6.09952],[-9.54331,6.09658],[-9.54687,6.10466],[-9.56553,6.10495],[-9.58268,6.11693],[-9.59772,6.1032],[-9.60478,6.10515],[-9.61185,6.09896],[-9.60669,6.08879],[-9.6128,6.08156],[-9.60313,6.07679],[-9.60508,6.07079],[-9.61074,6.07178],[-9.61578,6.06275],[-9.62337,6.06091],[-9.62214,6.05613],[-9.63843,6.05449],[-9.64488,6.03908],[-9.65179,6.04023],[-9.65376,6.0341],[-9.64572,6.01357],[-9.65383,6.00777],[-9.65033,5.99546],[-9.65658,5.99244],[-9.64873,5.98174],[-9.6579,5.98137],[-9.65303,5.97711],[-9.65419,5.97017],[-9.65734,5.96795],[-9.65912,5.97352],[-9.66173,5.96391],[-9.66993,5.959],[-9.65918,5.93763],[-9.66335,5.93408],[-9.66764,5.9413],[-9.67,5.93338],[-9.66801,5.90365],[-9.6548,5.89029],[-9.65784,5.88049],[-9.66225,5.8833],[-9.66512,5.87969],[-9.66412,5.86388],[-9.66705,5.85947],[-9.6778,5.85884],[-9.69978,5.82249],[-9.69451,5.81633],[-9.69997,5.8055],[-9.69793,5.79904],[-9.68467,5.7906],[-9.68744,5.77523],[-9.67802,5.76924],[-9.68221,5.74921],[-9.67878,5.74578],[-9.69485,5.73491],[-9.69319,5.72427],[-9.67403,5.7064],[-9.67125,5.67915],[-9.67479,5.67131],[-9.66732,5.66837],[-9.66634,5.66198],[-9.68251,5.63939],[-9.70793,5.62515],[-9.71262,5.61344],[-9.70736,5.61112],[-9.7078,5.60498],[-9.73319,5.59741],[-9.72904,5.57313]]]}},{"type":"Feature","properties":{"NAME_1":"Sinoe","shapeName":"Sinoe","shapeISO":"LR-SI","shapeID":"1627179B77023488056889"},"geometry":{"type":"Polygon","coordinates":[[[-9.09589,5.82269],[-9.11779,5.82153],[-9.13161,5.7846],[-9.15524,5.76217],[-9.13161,5.75382],[-9.09204,5.69995],[-9.09586,5.67769],[-9.1164,5.6505],[-9.0938,5.61385],[-9.09619,5.5991],[-9.13242,5.60798],[-9.1755,5.60555],[-9.20274,5.58156],[-9.23623,5.57729],[-9.247,5.5573],[-9.26152,5.54705],[-9.28417,5.54058],[-9.29198,5.53275],[-9.29394,5.49532],[-9.30388,5.4865],[-9.3079,5.46834],[-9.29424,5.44715],[-9.29339,5.43729],[-9.29937,5.42817],[-9.32189,5.42424],[-9.32496,5.41176],[-9.31848,5.38693],[-9.32595,5.37194],[-9.34729,5.35662],[-9.3755,5.34888],[-9.38231,5.32785],[-9.4127,5.31226],[-9.42542,5.31034],[-9.42579,5.29245],[-9.41379,5.27666],[-9.41283,5.26463],[-9.3902,5.24532],[-9.37378,5.23865],[-9.37639,5.22696],[-9.34281,5.20229],[-9.29725,5.18135],[-9.28841,5.17157],[-9.2833,5.15992],[-9.29909,5.15059],[-9.23169,5.12406],[-9.19441,5.09826],[-9.17359,5.08959],[-9.17266,5.0826],[-9.12457,5.06202],[-9.11903,5.05716],[-9.12509,5.04969],[-9.11626,5.04291],[-9.04414,5.01078],[-9.03708,4.99418],[-9.04503,4.98742],[-9.03762,4.98083],[-9.01127,4.97708],[-8.9184,4.94944],[-8.86277,4.92428],[-8.8461,4.90821],[-8.84805,4.89909],[-8.80638,4.87595],[-8.80435,4.86858],[-8.79253,4.85944],[-8.79232,4.85314],[-8.72695,4.82923],[-8.71959,4.81685],[-8.72284,4.81403],[-8.71614,4.80751],[-8.7087,4.80751],[-8.694,4.82194],[-8.694,4.82982],[-8.60491,4.9052],[-8.56008,4.9872],[-8.39921,4.99486],[-8.38808,5.00399],[-8.37677,5.02786],[-8.34964,5.04477],[-8.32337,5.04637],[-8.30693,5.05687],[-8.29642,5.08417],[-8.27181,5.10679],[-8.25559,5.14973],[-8.24789,5.25242],[-8.23508,5.28281],[-8.24417,5.29455],[-8.24303,5.30364],[-8.22347,5.33812],[-8.21653,5.33337],[-8.19743,5.33202],[-8.1825,5.33583],[-8.17242,5.32837],[-8.12445,5.35143],[-8.09583,5.33428],[-8.08135,5.35436],[-8.08456,5.36298],[-8.07242,5.37076],[-8.07874,5.42256],[-8.1205,5.44165],[-8.17612,5.44362],[-8.22841,5.47698],[-8.24504,5.49384],[-8.2596,5.50071],[-8.27168,5.50073],[-8.28846,5.51818],[-8.29431,5.50926],[-8.36096,5.51019],[-8.40083,5.56784],[-8.42473,5.61747],[-8.40989,5.64533],[-8.38171,5.6484],[-8.37793,5.67302],[-8.35477,5.69992],[-8.35056,5.74333],[-8.36071,5.79405],[-8.36861,5.80909],[-8.45401,5.85676],[-8.47317,5.86137],[-8.48756,5.85199],[-8.48884,5.82486],[-8.51302,5.81486],[-8.52469,5.81696],[-8.53679,5.79568],[-8.54763,5.7911],[-8.55973,5.77525],[-8.62814,5.76439],[-8.67565,5.76484],[-8.72233,5.75777],[-8.75537,5.74682],[-8.75014,5.73671],[-8.75743,5.72325],[-8.74912,5.71193],[-8.73642,5.71379],[-8.73998,5.70089],[-8.734,5.69209],[-8.74173,5.68067],[-8.80196,5.68497],[-8.89158,5.71133],[-8.91707,5.71253],[-8.94774,5.72889],[-8.99315,5.73687],[-9.0067,5.74565],[-9.02821,5.78196],[-9.09589,5.82269]]]}}]}
